CCSDS_OMM_VERS = 2.0
CREATION_DATE  = 
ORIGINATOR     = 

OBJECT_NAME    = SL-3 R/B
OBJECT_ID      = 1988-032B
CENTER_NAME    = EARTH
REF_FRAME      = TEME
TIME_SYSTEM    = UTC
MEAN_ELEMENT_THEORY = SGP/SGP4

EPOCH          = 2026-03-13T22:42:09.868320
MEAN_MOTION    = 15.19963859
ECCENTRICITY   = .00247515
INCLINATION    = 97.5194
RA_OF_ASC_NODE = 56.1818
ARG_OF_PERICENTER = 215.8184
MEAN_ANOMALY   = 144.1392

EPHEMERIS_TYPE = 0
CLASSIFICATION_TYPE = U
NORAD_CAT_ID   = 19046
ELEMENT_SET_NO = 999
REV_AT_EPOCH   = 5275
BSTAR          = .27390039E-3
MEAN_MOTION_DOT = .587E-4
MEAN_MOTION_DDOT = 0

CCSDS_OMM_VERS = 2.0
CREATION_DATE  = 
ORIGINATOR     = 

OBJECT_NAME    = SL-16 R/B
OBJECT_ID      = 1988-039B
CENTER_NAME    = EARTH
REF_FRAME      = TEME
TIME_SYSTEM    = UTC
MEAN_ELEMENT_THEORY = SGP/SGP4

EPOCH          = 2026-03-13T08:42:01.300320
MEAN_MOTION    = 14.19616171
ECCENTRICITY   = .00229677
INCLINATION    = 71.0138
RA_OF_ASC_NODE = 60.7806
ARG_OF_PERICENTER = 328.9599
MEAN_ANOMALY   = 31.0168

EPHEMERIS_TYPE = 0
CLASSIFICATION_TYPE = U
NORAD_CAT_ID   = 19120
ELEMENT_SET_NO = 999
REV_AT_EPOCH   = 95890
BSTAR          = .99421904E-4
MEAN_MOTION_DOT = .162E-5
MEAN_MOTION_DDOT = 0

CCSDS_OMM_VERS = 2.0
CREATION_DATE  = 
ORIGINATOR     = 

OBJECT_NAME    = COSMOS 1953
OBJECT_ID      = 1988-050A
CENTER_NAME    = EARTH
REF_FRAME      = TEME
TIME_SYSTEM    = UTC
MEAN_ELEMENT_THEORY = SGP/SGP4

EPOCH          = 2026-03-13T22:42:30.187008
MEAN_MOTION    = 15.28604061
ECCENTRICITY   = .00125815
INCLINATION    = 82.5104
RA_OF_ASC_NODE = 153.9670
ARG_OF_PERICENTER = 109.2753
MEAN_ANOMALY   = 250.9848

EPHEMERIS_TYPE = 0
CLASSIFICATION_TYPE = U
NORAD_CAT_ID   = 19210
ELEMENT_SET_NO = 999
REV_AT_EPOCH   = 3843
BSTAR          = .30576874E-3
MEAN_MOTION_DOT = .8558E-4
MEAN_MOTION_DDOT = 0

CCSDS_OMM_VERS = 2.0
CREATION_DATE  = 
ORIGINATOR     = 

OBJECT_NAME    = SL-8 R/B
OBJECT_ID      = 1988-053B
CENTER_NAME    = EARTH
REF_FRAME      = TEME
TIME_SYSTEM    = UTC
MEAN_ELEMENT_THEORY = SGP/SGP4

EPOCH          = 2026-03-13T06:34:55.771104
MEAN_MOTION    = 14.38918132
ECCENTRICITY   = .00214777
INCLINATION    = 74.0455
RA_OF_ASC_NODE = 105.8585
ARG_OF_PERICENTER = 284.6463
MEAN_ANOMALY   = 149.2613

EPHEMERIS_TYPE = 0
CLASSIFICATION_TYPE = U
NORAD_CAT_ID   = 19257
ELEMENT_SET_NO = 999
REV_AT_EPOCH   = 97711
BSTAR          = .10214025E-3
MEAN_MOTION_DOT = .289E-5
MEAN_MOTION_DDOT = 0

CCSDS_OMM_VERS = 2.0
CREATION_DATE  = 
ORIGINATOR     = 

OBJECT_NAME    = COSMOS 1975
OBJECT_ID      = 1988-093A
CENTER_NAME    = EARTH
REF_FRAME      = TEME
TIME_SYSTEM    = UTC
MEAN_ELEMENT_THEORY = SGP/SGP4

EPOCH          = 2026-03-13T12:32:51.979776
MEAN_MOTION    = 15.28127804
ECCENTRICITY   = .00125213
INCLINATION    = 82.5183
RA_OF_ASC_NODE = 113.8374
ARG_OF_PERICENTER = 150.4889
MEAN_ANOMALY   = 209.7059

EPHEMERIS_TYPE = 0
CLASSIFICATION_TYPE = U
NORAD_CAT_ID   = 19573
ELEMENT_SET_NO = 999
REV_AT_EPOCH   = 1999
BSTAR          = .28919669E-3
MEAN_MOTION_DOT = .7979E-4
MEAN_MOTION_DDOT = 0

CCSDS_OMM_VERS = 2.0
CREATION_DATE  = 
ORIGINATOR     = 

OBJECT_NAME    = SL-14 R/B
OBJECT_ID      = 1988-093B
CENTER_NAME    = EARTH
REF_FRAME      = TEME
TIME_SYSTEM    = UTC
MEAN_ELEMENT_THEORY = SGP/SGP4

EPOCH          = 2026-03-13T23:23:33.213408
MEAN_MOTION    = 14.85662506
ECCENTRICITY   = .00214588
INCLINATION    = 82.5312
RA_OF_ASC_NODE = 38.0211
ARG_OF_PERICENTER = 27.9881
MEAN_ANOMALY   = 43.4022

EPHEMERIS_TYPE = 0
CLASSIFICATION_TYPE = U
NORAD_CAT_ID   = 19574
ELEMENT_SET_NO = 999
REV_AT_EPOCH   = 165
BSTAR          = .7642349E-4
MEAN_MOTION_DOT = .689E-5
MEAN_MOTION_DDOT = 0

CCSDS_OMM_VERS = 2.0
CREATION_DATE  = 
ORIGINATOR     = 

OBJECT_NAME    = SL-16 R/B
OBJECT_ID      = 1988-102B
CENTER_NAME    = EARTH
REF_FRAME      = TEME
TIME_SYSTEM    = UTC
MEAN_ELEMENT_THEORY = SGP/SGP4

EPOCH          = 2026-03-13T22:20:48.386976
MEAN_MOTION    = 14.16154866
ECCENTRICITY   = .00142288
INCLINATION    = 70.9996
RA_OF_ASC_NODE = 142.5732
ARG_OF_PERICENTER = 354.9106
MEAN_ANOMALY   = 5.1870

EPHEMERIS_TYPE = 0
CLASSIFICATION_TYPE = U
NORAD_CAT_ID   = 19650
ELEMENT_SET_NO = 999
REV_AT_EPOCH   = 92749
BSTAR          = .13920766E-3
MEAN_MOTION_DOT = .228E-5
MEAN_MOTION_DDOT = 0

CCSDS_OMM_VERS = 2.0
CREATION_DATE  = 
ORIGINATOR     = 

OBJECT_NAME    = INTERCOSMOS 24
OBJECT_ID      = 1989-080A
CENTER_NAME    = EARTH
REF_FRAME      = TEME
TIME_SYSTEM    = UTC
MEAN_ELEMENT_THEORY = SGP/SGP4

EPOCH          = 2026-03-13T18:34:36.081408
MEAN_MOTION    = 12.59564721
ECCENTRICITY   = .1186677
INCLINATION    = 82.6020
RA_OF_ASC_NODE = 101.7439
ARG_OF_PERICENTER = 283.3309
MEAN_ANOMALY   = 63.8376

EPHEMERIS_TYPE = 0
CLASSIFICATION_TYPE = U
NORAD_CAT_ID   = 20261
ELEMENT_SET_NO = 999
REV_AT_EPOCH   = 66731
BSTAR          = .2394622E-3
MEAN_MOTION_DOT = .804E-5
MEAN_MOTION_DDOT = 0

CCSDS_OMM_VERS = 2.0
CREATION_DATE  = 
ORIGINATOR     = 

OBJECT_NAME    = SL-14 R/B
OBJECT_ID      = 1989-080C
CENTER_NAME    = EARTH
REF_FRAME      = TEME
TIME_SYSTEM    = UTC
MEAN_ELEMENT_THEORY = SGP/SGP4

EPOCH          = 2026-03-13T07:36:08.360352
MEAN_MOTION    = 12.50498591
ECCENTRICITY   = .12306732
INCLINATION    = 82.5974
RA_OF_ASC_NODE = 170.8587
ARG_OF_PERICENTER = 176.4619
MEAN_ANOMALY   = 184.6280

EPHEMERIS_TYPE = 0
CLASSIFICATION_TYPE = U
NORAD_CAT_ID   = 20262
ELEMENT_SET_NO = 999
REV_AT_EPOCH   = 66060
BSTAR          = .18191817E-3
MEAN_MOTION_DOT = .622E-5
MEAN_MOTION_DDOT = 0

CCSDS_OMM_VERS = 2.0
CREATION_DATE  = 
ORIGINATOR     = 

OBJECT_NAME    = DELTA 1 R/B
OBJECT_ID      = 1989-089B
CENTER_NAME    = EARTH
REF_FRAME      = TEME
TIME_SYSTEM    = UTC
MEAN_ELEMENT_THEORY = SGP/SGP4

EPOCH          = 2026-03-13T19:52:50.888928
MEAN_MOTION    = 14.50666794
ECCENTRICITY   = .0070635
INCLINATION    = 97.0703
RA_OF_ASC_NODE = 279.6088
ARG_OF_PERICENTER = 109.1386
MEAN_ANOMALY   = 251.7476

EPHEMERIS_TYPE = 0
CLASSIFICATION_TYPE = U
NORAD_CAT_ID   = 20323
ELEMENT_SET_NO = 999
REV_AT_EPOCH   = 89633
BSTAR          = .10954257E-3
MEAN_MOTION_DOT = .409E-5
MEAN_MOTION_DDOT = 0

CCSDS_OMM_VERS = 2.0
CREATION_DATE  = 
ORIGINATOR     = 

OBJECT_NAME    = ARIANE 40 R/B
OBJECT_ID      = 1990-005H
CENTER_NAME    = EARTH
REF_FRAME      = TEME
TIME_SYSTEM    = UTC
MEAN_ELEMENT_THEORY = SGP/SGP4

EPOCH          = 2026-03-13T21:55:26.581440
MEAN_MOTION    = 14.39873538
ECCENTRICITY   = .00101101
INCLINATION    = 98.3074
RA_OF_ASC_NODE = 133.4490
ARG_OF_PERICENTER = 185.5170
MEAN_ANOMALY   = 174.5909

EPHEMERIS_TYPE = 0
CLASSIFICATION_TYPE = U
NORAD_CAT_ID   = 20443
ELEMENT_SET_NO = 999
REV_AT_EPOCH   = 89341
BSTAR          = .10613258E-3
MEAN_MOTION_DOT = .291E-5
MEAN_MOTION_DDOT = 0

CCSDS_OMM_VERS = 2.0
CREATION_DATE  = 
ORIGINATOR     = 

OBJECT_NAME    = DELTA 2 R/B(1)
OBJECT_ID      = 1990-008B
CENTER_NAME    = EARTH
REF_FRAME      = TEME
TIME_SYSTEM    = UTC
MEAN_ELEMENT_THEORY = SGP/SGP4

EPOCH          = 2026-03-13T13:03:59.109696
MEAN_MOTION    = 15.56513638
ECCENTRICITY   = .00841404
INCLINATION    = 35.6032
RA_OF_ASC_NODE = 149.5449
ARG_OF_PERICENTER = 294.2576
MEAN_ANOMALY   = 64.9388

EPHEMERIS_TYPE = 0
CLASSIFICATION_TYPE = U
NORAD_CAT_ID   = 20453
ELEMENT_SET_NO = 999
REV_AT_EPOCH   = 92673
BSTAR          = .87109249E-3
MEAN_MOTION_DOT = .75823E-3
MEAN_MOTION_DDOT = 0

